[{"OBJECT_NAME":"SDA_1672","OBJECT_ID":"2025-230J","EPOCH":"2026-03-09T22:13:49.529280","MEAN_MOTION":13.84978873,"ECCENTRICITY":0.000446,"INCLINATION":81.3012,"RA_OF_ASC_NODE":303.7625,"ARG_OF_PERICENTER":83.2945,"MEAN_ANOMALY":276.872,"EPHEMERIS_TYPE":0,"CLASSIFICATION_TYPE":"U","NORAD_CAT_ID":65982,"ELEMENT_SET_NO":999,"REV_AT_EPOCH":2007,"BSTAR":0.0002038919,"MEAN_MOTION_DOT":2.42e-6,"MEAN_MOTION_DDOT":0},{"OBJECT_NAME":"COSMOS 1275 DEB","OBJECT_ID":"1981-053TW","EPOCH":"2026-03-08T00:09:19.254240","MEAN_MOTION":13.88195016,"ECCENTRICITY":0.00400666,"INCLINATION":82.9221,"RA_OF_ASC_NODE":165.6884,"ARG_OF_PERICENTER":64.5549,"MEAN_ANOMALY":60.6632,"EPHEMERIS_TYPE":0,"CLASSIFICATION_TYPE":"U","NORAD_CAT_ID":42206,"ELEMENT_SET_NO":999,"REV_AT_EPOCH":49094,"BSTAR":0.00070551757,"MEAN_MOTION_DOT":8.64e-6,"MEAN_MOTION_DDOT":0}]
